[{"OBJECT_NAME":"STARLINK-34923","OBJECT_ID":"2025-179N","EPOCH":"2026-03-09T16:30:15.046560","MEAN_MOTION":15.0565355,"ECCENTRICITY":0.0001377,"INCLINATION":97.6029,"RA_OF_ASC_NODE":112.8951,"ARG_OF_PERICENTER":155.5655,"MEAN_ANOMALY":204.5637,"EPHEMERIS_TYPE":0,"CLASSIFICATION_TYPE":"U","NORAD_CAT_ID":65247,"ELEMENT_SET_NO":999,"REV_AT_EPOCH":3186,"BSTAR":0.00024357293,"MEAN_MOTION_DOT":3.456e-5,"MEAN_MOTION_DDOT":0},{"OBJECT_NAME":"UNKNOWN","OBJECT_ID":"","EPOCH":"2026-03-08T12:59:39.172704","MEAN_MOTION":15.0131728,"ECCENTRICITY":0.00204305,"INCLINATION":86.3534,"RA_OF_ASC_NODE":358.469,"ARG_OF_PERICENTER":121.5673,"MEAN_ANOMALY":238.7558,"EPHEMERIS_TYPE":0,"CLASSIFICATION_TYPE":"U","NORAD_CAT_ID":270086,"ELEMENT_SET_NO":999,"REV_AT_EPOCH":9441,"BSTAR":0.0053525659,"MEAN_MOTION_DOT":0.00069778,"MEAN_MOTION_DDOT":0}]
